KUIPER-00165            
1 65778U 25217S   26015.50002314 -.00002231  00000+0 -24811-3 0  9997
2 65778  51.8998 270.8547 0001718 181.3019  91.8137 14.82386137  5386
KUIPER-00166            
1 65779U 25217T   26015.50002314 -.00107749  00000+0 -51160-2 0  9994
2 65779  51.8795 261.6300 0003110 145.5045 100.2528 15.19172518  5708
KUIPER-00167            
1 65780U 25217U   26015.02807835  .00001969  00000+0  28696-3 0  9998
2 65780  51.8975 282.8772 0000753  64.7617 295.3423 14.79969613 16892
KUIPER-00168            
1 65781U 25217V   26015.50002314  .00008919  00000+0  75382-3 0  9997
2 65781  51.8917 264.2600 0000959 192.3930 280.0822 14.98732302  4533
KUIPER-00169            
1 65782U 25217W   26015.50002314  .00018211  00000+0  21768-2 0  9992
2 65782  51.9010 268.4482 0004005 127.3710  81.9898 14.84207686  5341
KUIPER-00170            
1 65783U 25217X   26015.50002314 -.00019236  00000+0 -24928-2 0  9994
2 65783  51.8988 273.3014 0000787  60.8474 251.6088 14.80078988  5290
KUIPER-00171            
1 65784U 25217Y   26015.50002314  .01345690  00000+0  59328-2 0  9992
2 65784  51.8503 243.8210 0010108 148.6495  84.5957 15.81387037  3948
KUIPER-00172            
1 65785U 25217Z   26015.08588294  .00008389  00000+0  39185-3 0  9992
2 65785  51.8745 266.0670 0005277 147.0315 213.0994 15.20601323 17135
KUIPER-00173            
1 65786U 25217AA  26015.50002314  .00021552  00000+0  25660-2 0  9993
2 65786  51.9014 268.4552 0002590 235.6038 150.8565 14.84272530  5336
KUIPER-00174            
1 65787U 25217AB  26015.50002314  .00013006  00000+0  10908-2 0  9998
2 65787  51.8904 264.4090 0001479 317.5632 312.9319 14.98658955  5659
KUIPER-00176            
1 65788U 25217AC  26014.92949788  .00001328  00000+0  20334-3 0  9998
2 65788  51.9007 280.8311 0001046 109.7176 250.3899 14.79905092 16912
KUIPER-00101            
1 65947U 25228A   26015.00904753  .00001804  00000+0  26553-3 0  9998
2 65947  51.8976 237.9637 0001160  89.6769 270.4326 14.79936675 15286
KUIPER-00113            
1 65948U 25228B   26014.98065840 -.00001720  00000+0 -19654-3 0  9993
2 65948  51.8982 233.1081 0000574 123.1498 236.9519 14.79963424 15346
KUIPER-00117            
1 65949U 25228C   26015.01171063  .00001508  00000+0  22672-3 0  9990
2 65949  51.8968 235.4713 0000954 114.8322 245.2739 14.79942088 15310
KUIPER-00121            
1 65950U 25228D   26015.50002314  .00034646  00000+0  49326-2 0  9991
2 65950  51.8978 228.2027 0000768  38.8071 245.6052 14.76508599  4783
KUIPER-00122            
1 65951U 25228E   26014.83762943  .00002372  00000+0  34007-3 0  9990
2 65951  51.8978 241.2133 0001522 119.2717 240.8397 14.79925746 15227
KUIPER-00123            
1 65952U 25228F   26015.00645050  .00001660  00000+0  24691-3 0  9997
2 65952  51.8974 240.4893 0000945 118.9006 241.2052 14.79905437 15243
KUIPER-00124            
1 65953U 25228G   26015.01442757 -.00000171  00000+0  65598-5 0  9998
2 65953  51.8992 232.9442 0000832 120.4431 239.6613 14.79951075 15350
KUIPER-00125            
1 65954U 25228H   26015.50002314 -.00007627  00000+0 -41815-3 0  9992
2 65954  51.8860 218.4027 0005361 152.2833 291.9547 15.12313265  5755
KUIPER-00126            
1 65955U 25228J   26014.84025447 -.00002495  00000+0 -29878-3 0  9994
2 65955  51.8984 238.7317 0000880 101.2061 258.9001 14.79876976 15257
KUIPER-00127            
1 65956U 25228K   26014.82128104  .00002638  00000+0  24182-3 0  9997
2 65956  51.8942 233.2215 0005552 170.9511 189.1560 14.98165978 15331
KUIPER-00128            
1 65957U 25228L   26015.50002314  .00009155  00000+0  12236-2 0  9995
2 65957  51.8985 228.3218 0000775 108.2005 305.4834 14.80095547  5365
KUIPER-00129            
1 65958U 25228M   26015.50002314  .00009102  00000+0  10235-2 0  9995
2 65958  51.8974 223.4890 0002122 134.7301 331.4855 14.87303003  5501
KUIPER-00130            
1 65959U 25228N   26015.50002314  .00012081  00000+0  15001-2 0  9992
2 65959  51.9006 225.8738 0003001 153.7694 208.9914 14.82923044  5804
KUIPER-00134            
1 65960U 25228P   26014.83564655  .00004760  00000+0  14167-3 0  9998
2 65960  51.8762 220.8691 0007605 132.0241 228.1394 15.36619488 15507
KUIPER-00135            
1 65961U 25228Q   26015.50002314  .00007391  00000+0  92148-3 0  9991
2 65961  51.9002 225.9574 0001157  83.4954  89.7227 14.83273400  5021
KUIPER-00136            
1 65962U 25228R   26015.50002314  .00004533  00000+0  53715-3 0  9994
2 65962  51.8994 223.5939 0005483 193.4890  70.9105 14.86203765  5215
KUIPER-00137            
1 65963U 25228S   26015.50002314 -.00230664  00000+0 -20805-1 0  9995
2 65963  51.9331 221.5420 0004664 167.2799 178.7557 14.96363205  5756
KUIPER-00138            
1 65964U 25228T   26015.50002314 -.00003295  00000+0 -20366-3 0  9998
2 65964  51.8918 219.9976 0011404 164.9978 217.1645 15.06039194  5549
KUIPER-00140            
1 65965U 25228U   26015.50002314  .00011041  00000+0  98742-3 0  9998
2 65965  51.8931 221.7429 0006267 150.2989 347.3009 14.96288283  5510
KUIPER-00141            
1 65966U 25228V   26015.50002314  .00025292  00000+0  14619-2 0  9992
2 65966  51.8868 218.7834 0003307 227.0296 321.2402 15.12127150  4726
KUIPER-00146            
1 65967U 25228W   26015.50002314 -.00031233  00000+0 -22503-2 0  9998
2 65967  51.8916 220.0353 0001624 180.8896 100.4290 15.03576615  4709
KUIPER-00149            
1 65968U 25228X   26015.50002314  .00022604  00000+0  95227-3 0  9993
2 65968  51.8831 217.8506 0004601 150.4047 200.9675 15.23244059  5428
KUIPER-00154            
1 65969U 25228Y   26015.50002314  .00053153  00000+0  16586-2 0  9997
2 65969  51.8783 217.5393 0005801 127.1524  13.5095 15.32680439  5396
KUIPER-00157            
1 65970U 25228Z   26015.50002314 -.01019083  00000+0 -45281-1 0  9999
2 65970  51.8807 218.0818 0005317 154.6754  54.8748 15.23857824  5729
KUIPER-00144            
1 67133U 25301A   26015.41489745  .00019353  00000+0  54895-3 0  9991
2 67133  51.8709 322.6919 0005729 182.7623 177.3333 15.36226318  5544
KUIPER-00164            
1 67134U 25301B   26015.40242020  .00025582  00000+0  71033-3 0  9998
2 67134  51.8723 322.6130 0002882 171.4618 188.6418 15.36725686  5723
KUIPER-00175            
1 67135U 25301C   26015.26231479  .00024942  00000+0  68087-3 0  9993
2 67135  51.8755 323.1757 0002338 114.6622 245.4608 15.37270760  5597
KUIPER-00179            
1 67136U 25301D   26015.26960126  .00033404  00000+0  91825-3 0  9991
2 67136  51.8746 323.2254 0003469 150.5169 209.6013 15.36895086  5700
KUIPER-00181            
1 67137U 25301E   26015.24150642  .00021248  00000+0  62615-3 0  9992
2 67137  51.8659 323.7613 0010751 210.1456 149.8912 15.34927192  5673
KUIPER-00183            
1 67138U 25301F   26015.44142241  .00016769  00000+0  49749-3 0  9996
2 67138  51.8630 322.8435 0011558 211.3265 148.7033 15.34875681  5714
KUIPER-00184            
1 67139U 25301G   26015.36965773  .00020498  00000+0  59986-3 0  9999
2 67139  51.8642 323.1187 0009215 209.3650 150.6819 15.35184210  5815
KUIPER-00186            
1 67140U 25301H   26015.48677273  .00020687  00000+0  58981-3 0  9993
2 67140  51.8695 322.4191 0008221 196.0340 164.0387 15.36004884  5555
KUIPER-00187            
1 67141U 25301J   26015.50002314 -.00015654  00000+0 -51784-3 0  9999
2 67141  51.8743 322.3353 0005767 190.7803 241.0314 15.30123731  5346
KUIPER-00188            
1 67142U 25301K   26015.48912960  .00019050  00000+0  54798-3 0  9994
2 67142  51.8702 322.4345 0007617 200.5351 159.5330 15.35787602  5550
KUIPER-00191            
1 67143U 25301L   26015.48530463  .00019136  00000+0  54659-3 0  9990
2 67143  51.8681 322.4064 0006574 193.9998 166.0807 15.36011705  5588
KUIPER-00196            
1 67144U 25301M   26015.01427585  .00025298  00000+0  70399-3 0  9995
2 67144  51.8739 324.5116 0003002 161.7829 198.3266 15.36663385  5486
KUIPER-00204            
1 67145U 25301N   26015.50002314 -.00027641  00000+0 -11119-2 0  9999
2 67145  51.8830 322.6999 0004572 126.7041 111.2928 15.24113605  5668
KUIPER-00210            
1 67146U 25301P   26015.43985354  .00020581  00000+0  60721-3 0  9994
2 67146  51.8611 322.8308 0010390 219.9156 140.1066 15.34914372  5710
KUIPER-00221            
1 67147U 25301Q   26015.50002314 -.00009718  00000+0 -29613-3 0  9995
2 67147  51.8727 322.3141 0004803 160.8092 299.2995 15.32241892  5045
KUIPER-00232            
1 67148U 25301R   26015.45667822  .00031778  00000+0  86848-3 0  9993
2 67148  51.8737 322.2281 0003002 101.2674 258.8650 15.37102231  5559
KUIPER-00241            
1 67149U 25301S   26015.07489465  .00018871  00000+0  52443-3 0  9990
2 67149  51.8747 324.1678 0003123 151.5777 208.5381 15.36892421  5827
KUIPER-00245            
1 67150U 25301T   26015.50002314 -.00022540  00000+0 -99828-3 0  9992
2 67150  51.8800 322.8192 0008441 190.3245 344.1922 15.20727994  5041
KUIPER-00246            
1 67151U 25301U   26015.01530014  .00019161  00000+0  53686-3 0  9997
2 67151  51.8746 324.5184 0004067 166.8367 193.2726 15.36623850  5503
KUIPER-00247            
1 67152U 25301V   26015.11879353  .00014346  00000+0  43164-3 0  9991
2 67152  51.8663 324.4361 0011173 218.9416 141.0765 15.34563054  5497
KUIPER-00248            
1 67153U 25301W   26015.42991570 -.00005285  00000+0 -14041-3 0  9998
2 67153  51.8696 322.7846 0007131 206.2196 153.8430 15.35374229  5717
KUIPER-00249            
1 67154U 25301X   26015.23030385  .00022198  00000+0  63679-3 0  9997
2 67154  51.8669 323.6928 0008393 202.0376 158.0250 15.35764715  5512
KUIPER-00250            
1 67155U 25301Y   26015.48056934  .00021341  00000+0  60324-3 0  9996
2 67155  51.8731 322.3835 0005943 191.5814 168.5037 15.36268253  5586
KUIPER-00251            
1 67156U 25301Z   26015.49441044  .00017302  00000+0  50437-3 0  9994
2 67156  51.8689 322.4627 0008785 201.6697 158.3918 15.35430351  5740
